CCSDS_OMM_VERS = 2.0
CREATION_DATE  = 
ORIGINATOR     = 

OBJECT_NAME    = CZ-4B R/B
OBJECT_ID      = 2025-289B
CENTER_NAME    = EARTH
REF_FRAME      = TEME
TIME_SYSTEM    = UTC
MEAN_ELEMENT_THEORY = SGP/SGP4

EPOCH          = 2025-12-10T14:28:25.343040
MEAN_MOTION    = 15.66312523
ECCENTRICITY   = .01519273
INCLINATION    = 97.5247
RA_OF_ASC_NODE = 49.7881
ARG_OF_PERICENTER = 11.1182
MEAN_ANOMALY   = 349.3371

EPHEMERIS_TYPE = 0
CLASSIFICATION_TYPE = U
NORAD_CAT_ID   = 66989
ELEMENT_SET_NO = 999
REV_AT_EPOCH   = 23
BSTAR          = .28721477E-3
MEAN_MOTION_DOT = .55635E-3
MEAN_MOTION_DDOT = .3061406E-5

CCSDS_OMM_VERS = 2.0
CREATION_DATE  = 
ORIGINATOR     = 

OBJECT_NAME    = TJS-22
OBJECT_ID      = 2025-290A
CENTER_NAME    = EARTH
REF_FRAME      = TEME
TIME_SYSTEM    = UTC
MEAN_ELEMENT_THEORY = SGP/SGP4

EPOCH          = 2025-12-10T07:11:32.845344
MEAN_MOTION    = 2.15443148
ECCENTRICITY   = .6664534
INCLINATION    = 20.1261
RA_OF_ASC_NODE = 301.1464
ARG_OF_PERICENTER = 180.6877
MEAN_ANOMALY   = 177.6237

EPHEMERIS_TYPE = 0
CLASSIFICATION_TYPE = U
NORAD_CAT_ID   = 66990
ELEMENT_SET_NO = 999
REV_AT_EPOCH   = 3
BSTAR          = .79788243E-1
MEAN_MOTION_DOT = -.38E-6
MEAN_MOTION_DDOT = 0

CCSDS_OMM_VERS = 2.0
CREATION_DATE  = 
ORIGINATOR     = 

OBJECT_NAME    = CZ-3B R/B
OBJECT_ID      = 2025-290B
CENTER_NAME    = EARTH
REF_FRAME      = TEME
TIME_SYSTEM    = UTC
MEAN_ELEMENT_THEORY = SGP/SGP4

EPOCH          = 2025-12-10T06:44:55.577184
MEAN_MOTION    = 2.37676924
ECCENTRICITY   = .72420555
INCLINATION    = 28.4645
RA_OF_ASC_NODE = 302.5976
ARG_OF_PERICENTER = 179.3847
MEAN_ANOMALY   = 182.8677

EPHEMERIS_TYPE = 0
CLASSIFICATION_TYPE = U
NORAD_CAT_ID   = 66991
ELEMENT_SET_NO = 999
REV_AT_EPOCH   = 3
BSTAR          = .43781284E-3
MEAN_MOTION_DOT = .18897E-3
MEAN_MOTION_DDOT = .456211E-6

